<?xml version="1.0" encoding="UTF-8"?>
<gpx version="1.1" creator="emit-arc-artifacts.py" xmlns="http://www.topografix.com/GPX/1/1">
  <metadata>
    <name>Baseball field — Grünwald (removable outfield fence overlay)</name>
    <desc>Full overlay as GPX: waypoints for diamond/chalk/trial pins, tracks for arcs/foul lines/backstop/soccer PA. Generated by emit-arc-artifacts.py from gruenwald-baseballfeld-geometry.yaml.</desc>
  </metadata>
  <wpt lat="48.05141513323795" lon="11.530370986609773">
    <name>Home plate</name>
    <desc>Origin of the field coordinate system.</desc>
    <sym>Pin, Red</sym>
  </wpt>
  <wpt lat="48.051324108667785" lon="11.53016263118982">
    <name>1st base</name>
    <desc>Surveyed: 18.51 m at 236.85°. Little League 60-ft scale.</desc>
    <sym>Diamond, Blue</sym>
  </wpt>
  <wpt lat="48.05119449205331" lon="11.530292058824903">
    <name>2nd base</name>
    <desc>Surveyed: 25.21 m at 193.46°. Defines diamond symmetry axis.</desc>
    <sym>Diamond, Blue</sym>
  </wpt>
  <wpt lat="48.05126891449887" lon="11.530488877556731">
    <name>3rd base</name>
    <desc>Surveyed: 18.47 m at 151.64°.</desc>
    <sym>Diamond, Blue</sym>
  </wpt>
  <wpt lat="48.05129494623837" lon="11.530326166819187">
    <name>Pitcher's plate</name>
    <desc>Surveyed: 13.77 m at 194.04°.</desc>
    <sym>Diamond, Green</sym>
  </wpt>
  <wpt lat="48.05129942892964" lon="11.530327508008737">
    <name>Mound centre</name>
    <desc>Surveyed: 13.26 m at 194.14°.</desc>
    <sym>Diamond, Green</sym>
  </wpt>
  <wpt lat="48.05108049069782" lon="11.529623519580033">
    <name>RF chalk endpoint</name>
    <desc>66.91 m at 236.22° from home plate.</desc>
    <sym>Flag, Red</sym>
  </wpt>
  <wpt lat="48.05090566272845" lon="11.530778042628457">
    <name>LF chalk endpoint</name>
    <desc>64.21 m at 151.86° from home plate.</desc>
    <sym>Flag, Red</sym>
  </wpt>
  <wpt lat="48.05108049069782" lon="11.529623519580033">
    <name>RF corner — trial</name>
    <desc>1/5. 66.91 m at 236.23° from home plate.</desc>
    <sym>Flag, Blue</sym>
  </wpt>
  <wpt lat="48.05084184413892" lon="11.529785193830715">
    <name>RF mid-arc — trial</name>
    <desc>2/5. 77.20 m at 214.38° from home plate.</desc>
    <sym>Flag, Blue</sym>
  </wpt>
  <wpt lat="48.05071421139396" lon="11.530126997756286">
    <name>CF apex — trial</name>
    <desc>3/5. 79.98 m at 193.12° from home plate. Deepest point.</desc>
    <sym>Flag, Blue</sym>
  </wpt>
  <wpt lat="48.05074753621319" lon="11.530515180649552">
    <name>LF mid-arc — trial</name>
    <desc>4/5. 74.96 m at 171.77° from home plate.</desc>
    <sym>Flag, Blue</sym>
  </wpt>
  <wpt lat="48.05090566272845" lon="11.530778042628457">
    <name>LF corner — trial</name>
    <desc>5/5. 64.21 m at 151.85° from home plate.</desc>
    <sym>Flag, Blue</sym>
  </wpt>
  <trk>
    <name>Outfield arc — operational (small variant)</name>
    <desc>D=80 m apex on bearing 193.46° (home→2B). BBSV U12 Schüler scale.</desc>
    <trkseg>
      <trkpt lat="48.05108049069782" lon="11.529623519580033"/>
      <trkpt lat="48.05105410179152" lon="11.529629055853523"/>
      <trkpt lat="48.05102800196789" lon="11.529637086606666"/>
      <trkpt lat="48.051002296837986" lon="11.529647579343605"/>
      <trkpt lat="48.05097709041572" lon="11.529660491606247"/>
      <trkpt lat="48.05095248469705" lon="11.529675771146058"/>
      <trkpt lat="48.05092857924723" lon="11.529693356135498"/>
      <trkpt lat="48.050905470797915" lon="11.529713175418184"/>
      <trkpt lat="48.05088325285576" lon="11.529735148796835"/>
      <trkpt lat="48.05086201532406" lon="11.529759187357774"/>
      <trkpt lat="48.05084184413892" lon="11.529785193830715"/>
      <trkpt lat="48.050822820921596" lon="11.529813062982363"/>
      <trkpt lat="48.050805022648134" lon="11.529842682042226"/>
      <trkpt lat="48.05078852133796" lon="11.529873931158932"/>
      <trkpt lat="48.050773383762404" lon="11.529906683885212"/>
      <trkpt lat="48.05075967117459" lon="11.529940807689542"/>
      <trkpt lat="48.05074743906149" lon="11.529976164492435"/>
      <trkpt lat="48.05073673691946" lon="11.530012611225164"/>
      <trkpt lat="48.05072760805394" lon="11.53005000040868"/>
      <trkpt lat="48.050720089404216" lon="11.530088180750377"/>
      <trkpt lat="48.05071421139396" lon="11.530126997756286"/>
      <trkpt lat="48.050709997808106" lon="11.530166294356215"/>
      <trkpt lat="48.05070746569663" lon="11.53020591153934"/>
      <trkpt lat="48.05070662530554" lon="11.530245688997615"/>
      <trkpt lat="48.050707480035406" lon="11.530285465774453"/>
      <trkpt lat="48.05071002642763" lon="11.530325080916025"/>
      <trkpt lat="48.05071425417842" lon="11.530364374122545"/>
      <trkpt lat="48.050720146180495" lon="11.530403186396917"/>
      <trkpt lat="48.050727678592295" lon="11.530441360688101"/>
      <trkpt lat="48.05073682093447" lon="11.530478742526608"/>
      <trkpt lat="48.05074753621319" lon="11.530515180649552"/>
      <trkpt lat="48.05075978106986" lon="11.530550527612725"/>
      <trkpt lat="48.05077350595656" lon="11.530584640387213"/>
      <trkpt lat="48.050788655336554" lon="11.530617380938162"/>
      <trkpt lat="48.050805167908955" lon="11.530648616783317"/>
      <trkpt lat="48.05082297685685" lon="11.530678221529106"/>
      <trkpt lat="48.050842010117634" lon="11.530706075382081"/>
      <trkpt lat="48.0508621906746" lon="11.530732065633659"/>
      <trkpt lat="48.050883436868595" lon="11.530756087116176"/>
      <trkpt lat="48.05090566272845" lon="11.530778042628457"/>
    </trkseg>
  </trk>
  <trk>
    <name>Senior Tier 1 reference arc</name>
    <desc>Reference only — infeasible due to W tree line. 98 m foul / 122 m CF.</desc>
    <trkseg>
      <trkpt lat="48.05097568312319" lon="11.52922919682513"/>
      <trkpt lat="48.05094898207516" lon="11.52923028488516"/>
      <trkpt lat="48.05092233384705" lon="11.52923301780253"/>
      <trkpt lat="48.05089578385038" lon="11.52923739092005"/>
      <trkpt lat="48.050869377329285" lon="11.52924339678544"/>
      <trkpt lat="48.05084315928341" lon="11.529251025164038"/>
      <trkpt lat="48.05081717439121" lon="11.529260263056246"/>
      <trkpt lat="48.05079146693382" lon="11.529271094719668"/>
      <trkpt lat="48.0507660807196" lon="11.529283501695954"/>
      <trkpt lat="48.05074105900946" lon="11.529297462842237"/>
      <trkpt lat="48.050716444443175" lon="11.52931295436718"/>
      <trkpt lat="48.0506922789667" lon="11.529329949871505"/>
      <trkpt lat="48.05066860376067" lon="11.529348420392992"/>
      <trkpt lat="48.05064545917027" lon="11.529368334455825"/>
      <trkpt lat="48.05062288463645" lon="11.529389658124233"/>
      <trkpt lat="48.050600918628696" lon="11.529412355060323"/>
      <trkpt lat="48.050579598579546" lon="11.529436386586003"/>
      <trkpt lat="48.05055896082071" lon="11.529461711748887"/>
      <trkpt lat="48.050539040521215" lon="11.529488287392091"/>
      <trkpt lat="48.05051987162747" lon="11.529516068227778"/>
      <trkpt lat="48.05050148680539" lon="11.529545006914322"/>
      <trkpt lat="48.05048391738474" lon="11.529575054136998"/>
      <trkpt lat="48.05046719330577" lon="11.529606158692005"/>
      <trkpt lat="48.050451343068154" lon="11.529638267573738"/>
      <trkpt lat="48.05043639368247" lon="11.529671326065102"/>
      <trkpt lat="48.050422370624105" lon="11.529705277830766"/>
      <trkpt lat="48.050409297789926" lon="11.52974006501316"/>
      <trkpt lat="48.05039719745748" lon="11.52977562833107"/>
      <trkpt lat="48.050386090247066" lon="11.529811907180658"/>
      <trkpt lat="48.05037599508662" lon="11.52984883973875"/>
      <trkpt lat="48.050366929179404" lon="11.52988636306817"/>
      <trkpt lat="48.050358907974726" lon="11.529924413225011"/>
      <trkpt lat="48.050351945141614" lon="11.529962925367586"/>
      <trkpt lat="48.0503460525455" lon="11.530001833866939"/>
      <trkpt lat="48.05034124022803" lon="11.530041072418673"/>
      <trkpt lat="48.05033751638992" lon="11.53008057415595"/>
      <trkpt lat="48.050334887377" lon="11.530120271763431"/>
      <trkpt lat="48.05033335766941" lon="11.530160097591995"/>
      <trkpt lat="48.050332929873925" lon="11.530199983774018"/>
      <trkpt lat="48.05033360471957" lon="11.530239862339025"/>
      <trkpt lat="48.05033538105633" lon="11.530279665329523"/>
      <trkpt lat="48.05033825585713" lon="11.530319324916805"/>
      <trkpt lat="48.05034222422299" lon="11.53035877351654"/>
      <trkpt lat="48.05034727939137" lon="11.530397943903942"/>
      <trkpt lat="48.05035341274771" lon="11.53043676932833"/>
      <trkpt lat="48.05036061384009" lon="11.530475183626884"/>
      <trkpt lat="48.050368870397044" lon="11.530513121337375"/>
      <trkpt lat="48.050378168348495" lon="11.530550517809745"/>
      <trkpt lat="48.050388491849695" lon="11.53058730931626"/>
      <trkpt lat="48.05039982330826" lon="11.530623433160118"/>
      <trkpt lat="48.05041214341412" lon="11.530658827782283"/>
      <trkpt lat="48.050425431172464" lon="11.530693432866398"/>
      <trkpt lat="48.050439663939464" lon="11.530727189441567"/>
      <trkpt lat="48.05045481746092" lon="11.530760039982844"/>
      <trkpt lat="48.05047086591354" lon="11.530791928509267"/>
      <trkpt lat="48.050487781948995" lon="11.530822800679251"/>
      <trkpt lat="48.050505536740474" lon="11.5308526038832"/>
      <trkpt lat="48.05052410003186" lon="11.530881287333154"/>
      <trkpt lat="48.05054344018923" lon="11.53090880214933"/>
      <trkpt lat="48.05056352425483" lon="11.530935101443438"/>
      <trkpt lat="48.050584318003175" lon="11.530960140398564"/>
      <trkpt lat="48.050605785999416" lon="11.530983876345553"/>
      <trkpt lat="48.050627891659715" lon="11.531006268835725"/>
      <trkpt lat="48.05065059731356" lon="11.531027279709791"/>
    </trkseg>
  </trk>
  <trk>
    <name>BBSV U15 Jugend reference arc</name>
    <desc>Reference only — infeasible. 90 m foul / 105 m CF.</desc>
    <trkseg>
      <trkpt lat="48.05101155660195" lon="11.529322404154488"/>
      <trkpt lat="48.050985219441934" lon="11.52932939062001"/>
      <trkpt lat="48.050959105924946" lon="11.529338049339605"/>
      <trkpt lat="48.050933263634136" lon="11.529348364535652"/>
      <trkpt lat="48.05090773965846" lon="11.529360317412149"/>
      <trkpt lat="48.05088258050684" lon="11.529373886188973"/>
      <trkpt lat="48.050857832023404" lon="11.529389046141558"/>
      <trkpt lat="48.05083353930401" lon="11.529405769645962"/>
      <trkpt lat="48.05080974661403" lon="11.529424026229178"/>
      <trkpt lat="48.050786497307676" lon="11.529443782624684"/>
      <trkpt lat="48.05076383374905" lon="11.52946500283305"/>
      <trkpt lat="48.05074179723493" lon="11.529487648187535"/>
      <trkpt lat="48.05072042791948" lon="11.529511677424544"/>
      <trkpt lat="48.05069976474115" lon="11.529537046758824"/>
      <trkpt lat="48.050679845351674" lon="11.529563709963233"/>
      <trkpt lat="48.050660706047495" lon="11.52959161845299"/>
      <trkpt lat="48.05064238170359" lon="11.529620721374195"/>
      <trkpt lat="48.05062490570996" lon="11.529650965696499"/>
      <trkpt lat="48.050608309910764" lon="11.529682296309726"/>
      <trkpt lat="48.050592624546304" lon="11.5297146561243"/>
      <trkpt lat="48.05057787819791" lon="11.52974798617527"/>
      <trkpt lat="48.05056409773589" lon="11.52978222572975"/>
      <trkpt lat="48.050551308270514" lon="11.529817312397594"/>
      <trkpt lat="48.050539533106324" lon="11.529853182245068"/>
      <trkpt lat="48.05052879369962" lon="11.529889769911358"/>
      <trkpt lat="48.05051910961938" lon="11.529927008727666"/>
      <trkpt lat="48.050510498511606" lon="11.52996483083869"/>
      <trkpt lat="48.050502976067165" lon="11.530003167326266"/>
      <trkpt lat="48.050496555993206" lon="11.53004194833495"/>
      <trkpt lat="48.050491249988156" lon="11.530081103199315"/>
      <trkpt lat="48.05048706772045" lon="11.530120560572696"/>
      <trkpt lat="48.05048401681086" lon="11.530160248557213"/>
      <trkpt lat="48.05048210281866" lon="11.530200094834772"/>
      <trkpt lat="48.05048132923146" lon="11.530240026798845"/>
      <trkpt lat="48.05048169745886" lon="11.530279971686765"/>
      <trkpt lat="48.0504832068299" lon="11.530319856712318"/>
      <trkpt lat="48.05048585459424" lon="11.53035960919837"/>
      <trkpt lat="48.05048963592722" lon="11.530399156709295"/>
      <trkpt lat="48.050494543938626" lon="11.530438427182967"/>
      <trkpt lat="48.05050056968525" lon="11.530477349062064"/>
      <trkpt lat="48.05050770218717" lon="11.530515851424465"/>
      <trkpt lat="48.050515928447794" lon="11.530553864112477"/>
      <trkpt lat="48.05052523347751" lon="11.530591317860672"/>
      <trkpt lat="48.050535600321005" lon="11.530628144422112"/>
      <trkpt lat="48.05054701008817" lon="11.530664276692685"/>
      <trkpt lat="48.05055944198852" lon="11.5306996488334"/>
      <trkpt lat="48.05057287336906" lon="11.530734196390348"/>
      <trkpt lat="48.050587279755604" lon="11.530767856412147"/>
      <trkpt lat="48.05060263489732" lon="11.530800567564654"/>
      <trkpt lat="48.05061891081457" lon="11.530832270242717"/>
      <trkpt lat="48.05063607784996" lon="11.530862906678799"/>
      <trkpt lat="48.050654104722284" lon="11.530892421048229"/>
      <trkpt lat="48.050672958583604" lon="11.530920759570929"/>
      <trkpt lat="48.05069260507904" lon="11.530947870609406"/>
      <trkpt lat="48.05071300840943" lon="11.530973704762852"/>
    </trkseg>
  </trk>
  <trk>
    <name>RF foul line</name>
    <desc>Home plate to RF chalk endpoint, 66.91 m at 236.22°.</desc>
    <trkseg>
      <trkpt lat="48.05141513323795" lon="11.530370986609773"/>
      <trkpt lat="48.05108049069782" lon="11.529623519580033"/>
    </trkseg>
  </trk>
  <trk>
    <name>LF foul line</name>
    <desc>Home plate to LF chalk endpoint, 64.21 m at 151.86°.</desc>
    <trkseg>
      <trkpt lat="48.05141513323795" lon="11.530370986609773"/>
      <trkpt lat="48.05090566272845" lon="11.530778042628457"/>
    </trkseg>
  </trk>
  <trk>
    <name>Backstop wall</name>
    <desc>Curved wall behind home plate, 10 surveyed points. ~17 m wide × 9.4 m deep.</desc>
    <trkseg>
      <trkpt lat="48.05147691764964" lon="11.530477470562962"/>
      <trkpt lat="48.0514832785676" lon="11.530453001511345"/>
      <trkpt lat="48.05148963948479" lon="11.530436009114387"/>
      <trkpt lat="48.05149327429428" lon="11.530417657325675"/>
      <trkpt lat="48.05149600040123" lon="11.530404063408108"/>
      <trkpt lat="48.05149918085913" lon="11.530376875572975"/>
      <trkpt lat="48.05149963521024" lon="11.530361922263651"/>
      <trkpt lat="48.05149918085913" lon="11.530325898382102"/>
      <trkpt lat="48.05149418299662" lon="11.53028987450055"/>
      <trkpt lat="48.051483732918875" lon="11.530249092747853"/>
    </trkseg>
  </trk>
  <trk>
    <name>Soccer N penalty area</name>
    <desc>40.22 × 16.36 m. Long axis ~due east.</desc>
    <trkseg>
      <trkpt lat="48.05081599396754" lon="11.52976102590142"/>
      <trkpt lat="48.05081285605364" lon="11.530301525389968"/>
      <trkpt lat="48.05095988952818" lon="11.530304207769564"/>
      <trkpt lat="48.05096347570527" lon="11.529763708281017"/>
      <trkpt lat="48.05081599396754" lon="11.52976102590142"/>
    </trkseg>
  </trk>
</gpx>
