<?xml version="1.0" encoding="UTF-8"?>
<kml xmlns="http://www.opengis.net/kml/2.2">
  <Document>
    <name>Baseball field — Grünwald (removable outfield fence overlay)</name>
    <description>Reproducible AR-overlay for the removable outfield fence at a BBSV U12 Schüler field. Operational small-variant arc + reference variants (Senior Tier 1, BBSV U15 Jugend) + surveyed waypoints. Generated by emit-arc-artifacts.py.</description>

    <Style id="arc-operational"><LineStyle><color>ff0000ff</color><width>4</width></LineStyle></Style>
    <Style id="arc-tier1"><LineStyle><color>aa00a5ff</color><width>2</width></LineStyle></Style>
    <Style id="arc-u15"><LineStyle><color>aa00cc00</color><width>2</width></LineStyle></Style>
    <Style id="backstop"><LineStyle><color>ff000000</color><width>3</width></LineStyle></Style>
    <Style id="soccer-pa"><LineStyle><color>ff800000</color><width>2</width></LineStyle><PolyStyle><color>40800000</color></PolyStyle></Style>
    <Style id="foul-line"><LineStyle><color>aa888888</color><width>1</width></LineStyle></Style>
    <Style id="home"><IconStyle><color>ff000000</color><scale>1.2</scale></IconStyle></Style>
    <Style id="base"><IconStyle><color>ff00ffff</color><scale>1.0</scale></IconStyle></Style>
    <Style id="mound"><IconStyle><color>ff00aa00</color><scale>1.0</scale></IconStyle></Style>
    <Style id="endpoint"><IconStyle><color>ff0000ff</color><scale>1.0</scale></IconStyle></Style>
    <Style id="trial-pin"><IconStyle><color>ff00ffff</color><scale>1.3</scale></IconStyle></Style>

    <Folder>
      <name>Outfield arcs</name>
      <description>Operational design + reference variants.</description>
    <Placemark>
      <name>Outfield arc — operational (small variant)</name>
      <description>D=80 m apex on bearing 193.46° (home→2B). R=46.6 m, length 116 m, 39 segments at 3.0 m. BBSV U12 Schüler scale.</description>
      <styleUrl>#arc-operational</styleUrl>
      <LineString><tessellate>1</tessellate><coordinates>
          11.529623519580033,48.05108049069782,0
          11.529629055853523,48.05105410179152,0
          11.529637086606666,48.05102800196789,0
          11.529647579343605,48.051002296837986,0
          11.529660491606247,48.05097709041572,0
          11.529675771146058,48.05095248469705,0
          11.529693356135498,48.05092857924723,0
          11.529713175418184,48.050905470797915,0
          11.529735148796835,48.05088325285576,0
          11.529759187357774,48.05086201532406,0
          11.529785193830715,48.05084184413892,0
          11.529813062982363,48.050822820921596,0
          11.529842682042226,48.050805022648134,0
          11.529873931158932,48.05078852133796,0
          11.529906683885212,48.050773383762404,0
          11.529940807689542,48.05075967117459,0
          11.529976164492435,48.05074743906149,0
          11.530012611225164,48.05073673691946,0
          11.53005000040868,48.05072760805394,0
          11.530088180750377,48.050720089404216,0
          11.530126997756286,48.05071421139396,0
          11.530166294356215,48.050709997808106,0
          11.53020591153934,48.05070746569663,0
          11.530245688997615,48.05070662530554,0
          11.530285465774453,48.050707480035406,0
          11.530325080916025,48.05071002642763,0
          11.530364374122545,48.05071425417842,0
          11.530403186396917,48.050720146180495,0
          11.530441360688101,48.050727678592295,0
          11.530478742526608,48.05073682093447,0
          11.530515180649552,48.05074753621319,0
          11.530550527612725,48.05075978106986,0
          11.530584640387213,48.05077350595656,0
          11.530617380938162,48.050788655336554,0
          11.530648616783317,48.050805167908955,0
          11.530678221529106,48.05082297685685,0
          11.530706075382081,48.050842010117634,0
          11.530732065633659,48.0508621906746,0
          11.530756087116176,48.050883436868595,0
          11.530778042628457,48.05090566272845,0
      </coordinates></LineString>
    </Placemark>
    <Placemark>
      <name>Senior Tier 1 reference arc</name>
      <description>For reference only — infeasible on this field due to W tree line. 98 m foul / 122 m CF. R=71.9 m, length 187 m.</description>
      <styleUrl>#arc-tier1</styleUrl>
      <LineString><tessellate>1</tessellate><coordinates>
          11.52922919682513,48.05097568312319,0
          11.52923028488516,48.05094898207516,0
          11.52923301780253,48.05092233384705,0
          11.52923739092005,48.05089578385038,0
          11.52924339678544,48.050869377329285,0
          11.529251025164038,48.05084315928341,0
          11.529260263056246,48.05081717439121,0
          11.529271094719668,48.05079146693382,0
          11.529283501695954,48.0507660807196,0
          11.529297462842237,48.05074105900946,0
          11.52931295436718,48.050716444443175,0
          11.529329949871505,48.0506922789667,0
          11.529348420392992,48.05066860376067,0
          11.529368334455825,48.05064545917027,0
          11.529389658124233,48.05062288463645,0
          11.529412355060323,48.050600918628696,0
          11.529436386586003,48.050579598579546,0
          11.529461711748887,48.05055896082071,0
          11.529488287392091,48.050539040521215,0
          11.529516068227778,48.05051987162747,0
          11.529545006914322,48.05050148680539,0
          11.529575054136998,48.05048391738474,0
          11.529606158692005,48.05046719330577,0
          11.529638267573738,48.050451343068154,0
          11.529671326065102,48.05043639368247,0
          11.529705277830766,48.050422370624105,0
          11.52974006501316,48.050409297789926,0
          11.52977562833107,48.05039719745748,0
          11.529811907180658,48.050386090247066,0
          11.52984883973875,48.05037599508662,0
          11.52988636306817,48.050366929179404,0
          11.529924413225011,48.050358907974726,0
          11.529962925367586,48.050351945141614,0
          11.530001833866939,48.0503460525455,0
          11.530041072418673,48.05034124022803,0
          11.53008057415595,48.05033751638992,0
          11.530120271763431,48.050334887377,0
          11.530160097591995,48.05033335766941,0
          11.530199983774018,48.050332929873925,0
          11.530239862339025,48.05033360471957,0
          11.530279665329523,48.05033538105633,0
          11.530319324916805,48.05033825585713,0
          11.53035877351654,48.05034222422299,0
          11.530397943903942,48.05034727939137,0
          11.53043676932833,48.05035341274771,0
          11.530475183626884,48.05036061384009,0
          11.530513121337375,48.050368870397044,0
          11.530550517809745,48.050378168348495,0
          11.53058730931626,48.050388491849695,0
          11.530623433160118,48.05039982330826,0
          11.530658827782283,48.05041214341412,0
          11.530693432866398,48.050425431172464,0
          11.530727189441567,48.050439663939464,0
          11.530760039982844,48.05045481746092,0
          11.530791928509267,48.05047086591354,0
          11.530822800679251,48.050487781948995,0
          11.5308526038832,48.050505536740474,0
          11.530881287333154,48.05052410003186,0
          11.53090880214933,48.05054344018923,0
          11.530935101443438,48.05056352425483,0
          11.530960140398564,48.050584318003175,0
          11.530983876345553,48.050605785999416,0
          11.531006268835725,48.050627891659715,0
          11.531027279709791,48.05065059731356,0
      </coordinates></LineString>
    </Placemark>
    <Placemark>
      <name>BBSV U15 Jugend reference arc</name>
      <description>For reference only — infeasible on this field. 90 m foul / 105 m CF (lower band). R=69.6 m, length 161 m.</description>
      <styleUrl>#arc-u15</styleUrl>
      <LineString><tessellate>1</tessellate><coordinates>
          11.529322404154488,48.05101155660195,0
          11.52932939062001,48.050985219441934,0
          11.529338049339605,48.050959105924946,0
          11.529348364535652,48.050933263634136,0
          11.529360317412149,48.05090773965846,0
          11.529373886188973,48.05088258050684,0
          11.529389046141558,48.050857832023404,0
          11.529405769645962,48.05083353930401,0
          11.529424026229178,48.05080974661403,0
          11.529443782624684,48.050786497307676,0
          11.52946500283305,48.05076383374905,0
          11.529487648187535,48.05074179723493,0
          11.529511677424544,48.05072042791948,0
          11.529537046758824,48.05069976474115,0
          11.529563709963233,48.050679845351674,0
          11.52959161845299,48.050660706047495,0
          11.529620721374195,48.05064238170359,0
          11.529650965696499,48.05062490570996,0
          11.529682296309726,48.050608309910764,0
          11.5297146561243,48.050592624546304,0
          11.52974798617527,48.05057787819791,0
          11.52978222572975,48.05056409773589,0
          11.529817312397594,48.050551308270514,0
          11.529853182245068,48.050539533106324,0
          11.529889769911358,48.05052879369962,0
          11.529927008727666,48.05051910961938,0
          11.52996483083869,48.050510498511606,0
          11.530003167326266,48.050502976067165,0
          11.53004194833495,48.050496555993206,0
          11.530081103199315,48.050491249988156,0
          11.530120560572696,48.05048706772045,0
          11.530160248557213,48.05048401681086,0
          11.530200094834772,48.05048210281866,0
          11.530240026798845,48.05048132923146,0
          11.530279971686765,48.05048169745886,0
          11.530319856712318,48.0504832068299,0
          11.53035960919837,48.05048585459424,0
          11.530399156709295,48.05048963592722,0
          11.530438427182967,48.050494543938626,0
          11.530477349062064,48.05050056968525,0
          11.530515851424465,48.05050770218717,0
          11.530553864112477,48.050515928447794,0
          11.530591317860672,48.05052523347751,0
          11.530628144422112,48.050535600321005,0
          11.530664276692685,48.05054701008817,0
          11.5306996488334,48.05055944198852,0
          11.530734196390348,48.05057287336906,0
          11.530767856412147,48.050587279755604,0
          11.530800567564654,48.05060263489732,0
          11.530832270242717,48.05061891081457,0
          11.530862906678799,48.05063607784996,0
          11.530892421048229,48.050654104722284,0
          11.530920759570929,48.050672958583604,0
          11.530947870609406,48.05069260507904,0
          11.530973704762852,48.05071300840943,0
      </coordinates></LineString>
    </Placemark>
    </Folder>

    <Folder>
      <name>Foul lines and chalk endpoints</name>
    <Placemark>
      <name>RF foul line (chalk bearing 236.22°)</name>
      <description>From home plate to surveyed RF chalk endpoint at 66.91 m.</description>
      <styleUrl>#foul-line</styleUrl>
      <LineString><tessellate>1</tessellate><coordinates>
          11.530370986609773,48.05141513323795,0
          11.529623519580033,48.05108049069782,0
      </coordinates></LineString>
    </Placemark>
    <Placemark>
      <name>LF foul line (chalk bearing 151.86°)</name>
      <description>From home plate to surveyed LF chalk endpoint at 64.21 m.</description>
      <styleUrl>#foul-line</styleUrl>
      <LineString><tessellate>1</tessellate><coordinates>
          11.530370986609773,48.05141513323795,0
          11.530778042628457,48.05090566272845,0
      </coordinates></LineString>
    </Placemark>
    <Placemark>
      <name>RF chalk endpoint</name>
      <description>66.91 m from home at bearing 236.22°.</description>
      <styleUrl>#endpoint</styleUrl>
      <Point><coordinates>11.529623519580033,48.05108049069782,0</coordinates></Point>
    </Placemark>
    <Placemark>
      <name>LF chalk endpoint</name>
      <description>64.21 m from home at bearing 151.86°.</description>
      <styleUrl>#endpoint</styleUrl>
      <Point><coordinates>11.530778042628457,48.05090566272845,0</coordinates></Point>
    </Placemark>
    </Folder>

    <Folder>
      <name>Diamond</name>
    <Placemark>
      <name>Home plate</name>
      <description>Origin of the field coordinate system.</description>
      <styleUrl>#home</styleUrl>
      <Point><coordinates>11.530370986609773,48.05141513323795,0</coordinates></Point>
    </Placemark>
    <Placemark>
      <name>1st base</name>
      <description>Surveyed: 18.51 m at bearing 236.85°. Little League / 60-ft scale.</description>
      <styleUrl>#base</styleUrl>
      <Point><coordinates>11.53016263118982,48.051324108667785,0</coordinates></Point>
    </Placemark>
    <Placemark>
      <name>2nd base</name>
      <description>Surveyed: 25.21 m at bearing 193.46°. Defines the diamond symmetry axis.</description>
      <styleUrl>#base</styleUrl>
      <Point><coordinates>11.530292058824903,48.05119449205331,0</coordinates></Point>
    </Placemark>
    <Placemark>
      <name>3rd base</name>
      <description>Surveyed: 18.47 m at bearing 151.64°.</description>
      <styleUrl>#base</styleUrl>
      <Point><coordinates>11.530488877556731,48.05126891449887,0</coordinates></Point>
    </Placemark>
    <Placemark>
      <name>Pitcher's plate</name>
      <description>Surveyed: 13.77 m at bearing 194.04°. Matches Little League 46-ft.</description>
      <styleUrl>#mound</styleUrl>
      <Point><coordinates>11.530326166819187,48.05129494623837,0</coordinates></Point>
    </Placemark>
    <Placemark>
      <name>Mound centre</name>
      <description>Surveyed: 13.26 m at bearing 194.14°.</description>
      <styleUrl>#mound</styleUrl>
      <Point><coordinates>11.530327508008737,48.05129942892964,0</coordinates></Point>
    </Placemark>
    </Folder>

    <Folder>
      <name>Trial reference points</name>
      <description>Five named points on the operational arc — RF corner, RF mid-arc, CF apex, LF mid-arc, LF corner. Used by the field-trial procedure (tasks.md T3.3) for app-side navigation and tape-measure verification. Distances are home → point in metres.</description>
    <Placemark>
      <name>RF corner — trial</name>
      <description>Trial reference point 1/5. Home → RF corner: 66.91 m at 236.23°. Same location as RF chalk endpoint.</description>
      <styleUrl>#trial-pin</styleUrl>
      <Point><coordinates>11.529623519580033,48.05108049069782,0</coordinates></Point>
    </Placemark>
    <Placemark>
      <name>RF mid-arc — trial</name>
      <description>Trial reference point 2/5. Home → RF mid-arc: 77.20 m at 214.38°. Geodesic midpoint between RF corner and CF apex along the arc.</description>
      <styleUrl>#trial-pin</styleUrl>
      <Point><coordinates>11.529785193830715,48.05084184413892,0</coordinates></Point>
    </Placemark>
    <Placemark>
      <name>CF apex — trial</name>
      <description>Trial reference point 3/5. Home → CF apex: 79.98 m at 193.12°. Deepest point of the arc.</description>
      <styleUrl>#trial-pin</styleUrl>
      <Point><coordinates>11.530126997756286,48.05071421139396,0</coordinates></Point>
    </Placemark>
    <Placemark>
      <name>LF mid-arc — trial</name>
      <description>Trial reference point 4/5. Home → LF mid-arc: 74.96 m at 171.77°. Geodesic midpoint between CF apex and LF corner along the arc.</description>
      <styleUrl>#trial-pin</styleUrl>
      <Point><coordinates>11.530515180649552,48.05074753621319,0</coordinates></Point>
    </Placemark>
    <Placemark>
      <name>LF corner — trial</name>
      <description>Trial reference point 5/5. Home → LF corner: 64.21 m at 151.85°. Same location as LF chalk endpoint.</description>
      <styleUrl>#trial-pin</styleUrl>
      <Point><coordinates>11.530778042628457,48.05090566272845,0</coordinates></Point>
    </Placemark>
    </Folder>

    <Folder>
      <name>Permanent structures</name>
    <Placemark>
      <name>Backstop wall</name>
      <description>Curved wall behind home plate, 10 surveyed points. ~17 m wide × 9.4 m deep, apex on the home→CF axis.</description>
      <styleUrl>#backstop</styleUrl>
      <LineString><tessellate>1</tessellate><coordinates>
          11.530477470562962,48.05147691764964,0
          11.530453001511345,48.0514832785676,0
          11.530436009114387,48.05148963948479,0
          11.530417657325675,48.05149327429428,0
          11.530404063408108,48.05149600040123,0
          11.530376875572975,48.05149918085913,0
          11.530361922263651,48.05149963521024,0
          11.530325898382102,48.05149918085913,0
          11.53028987450055,48.05149418299662,0
          11.530249092747853,48.051483732918875,0
      </coordinates></LineString>
    </Placemark>
    <Placemark>
      <name>Soccer N penalty area</name>
      <description>Surveyed corners: 40.22 × 16.36 m (FIFA 40.32 × 16.5). Long axis bearing 90.56° (~due east).</description>
      <styleUrl>#soccer-pa</styleUrl>
      <Polygon><outerBoundaryIs><LinearRing><coordinates>
          11.52976102590142,48.05081599396754,0
          11.530301525389968,48.05081285605364,0
          11.530304207769564,48.05095988952818,0
          11.529763708281017,48.05096347570527,0
          11.52976102590142,48.05081599396754,0
      </coordinates></LinearRing></outerBoundaryIs></Polygon>
    </Placemark>
    </Folder>

  </Document>
</kml>
