{
  "type": "FeatureCollection",
  "features": [
    {
      "type": "Feature",
      "properties": {
        "folder": "Outfield arcs",
        "name": "Outfield arc \u2014 operational (small variant)",
        "description": "D=80 m apex on bearing 193.46\u00b0 (home\u21922B). R=46.6 m, length 116 m, 39 segments at 3.0 m. BBSV U12 Sch\u00fcler scale."
      },
      "geometry": {
        "type": "LineString",
        "coordinates": [
          [
            11.529623519580033,
            48.05108049069782
          ],
          [
            11.529629055853523,
            48.05105410179152
          ],
          [
            11.529637086606666,
            48.05102800196789
          ],
          [
            11.529647579343605,
            48.051002296837986
          ],
          [
            11.529660491606247,
            48.05097709041572
          ],
          [
            11.529675771146058,
            48.05095248469705
          ],
          [
            11.529693356135498,
            48.05092857924723
          ],
          [
            11.529713175418184,
            48.050905470797915
          ],
          [
            11.529735148796835,
            48.05088325285576
          ],
          [
            11.529759187357774,
            48.05086201532406
          ],
          [
            11.529785193830715,
            48.05084184413892
          ],
          [
            11.529813062982363,
            48.050822820921596
          ],
          [
            11.529842682042226,
            48.050805022648134
          ],
          [
            11.529873931158932,
            48.05078852133796
          ],
          [
            11.529906683885212,
            48.050773383762404
          ],
          [
            11.529940807689542,
            48.05075967117459
          ],
          [
            11.529976164492435,
            48.05074743906149
          ],
          [
            11.530012611225164,
            48.05073673691946
          ],
          [
            11.53005000040868,
            48.05072760805394
          ],
          [
            11.530088180750377,
            48.050720089404216
          ],
          [
            11.530126997756286,
            48.05071421139396
          ],
          [
            11.530166294356215,
            48.050709997808106
          ],
          [
            11.53020591153934,
            48.05070746569663
          ],
          [
            11.530245688997615,
            48.05070662530554
          ],
          [
            11.530285465774453,
            48.050707480035406
          ],
          [
            11.530325080916025,
            48.05071002642763
          ],
          [
            11.530364374122545,
            48.05071425417842
          ],
          [
            11.530403186396917,
            48.050720146180495
          ],
          [
            11.530441360688101,
            48.050727678592295
          ],
          [
            11.530478742526608,
            48.05073682093447
          ],
          [
            11.530515180649552,
            48.05074753621319
          ],
          [
            11.530550527612725,
            48.05075978106986
          ],
          [
            11.530584640387213,
            48.05077350595656
          ],
          [
            11.530617380938162,
            48.050788655336554
          ],
          [
            11.530648616783317,
            48.050805167908955
          ],
          [
            11.530678221529106,
            48.05082297685685
          ],
          [
            11.530706075382081,
            48.050842010117634
          ],
          [
            11.530732065633659,
            48.0508621906746
          ],
          [
            11.530756087116176,
            48.050883436868595
          ],
          [
            11.530778042628457,
            48.05090566272845
          ]
        ]
      }
    },
    {
      "type": "Feature",
      "properties": {
        "folder": "Outfield arcs",
        "name": "Senior Tier 1 reference arc",
        "description": "For reference only \u2014 infeasible on this field due to W tree line. 98 m foul / 122 m CF. R=71.9 m, length 187 m."
      },
      "geometry": {
        "type": "LineString",
        "coordinates": [
          [
            11.52922919682513,
            48.05097568312319
          ],
          [
            11.52923028488516,
            48.05094898207516
          ],
          [
            11.52923301780253,
            48.05092233384705
          ],
          [
            11.52923739092005,
            48.05089578385038
          ],
          [
            11.52924339678544,
            48.050869377329285
          ],
          [
            11.529251025164038,
            48.05084315928341
          ],
          [
            11.529260263056246,
            48.05081717439121
          ],
          [
            11.529271094719668,
            48.05079146693382
          ],
          [
            11.529283501695954,
            48.0507660807196
          ],
          [
            11.529297462842237,
            48.05074105900946
          ],
          [
            11.52931295436718,
            48.050716444443175
          ],
          [
            11.529329949871505,
            48.0506922789667
          ],
          [
            11.529348420392992,
            48.05066860376067
          ],
          [
            11.529368334455825,
            48.05064545917027
          ],
          [
            11.529389658124233,
            48.05062288463645
          ],
          [
            11.529412355060323,
            48.050600918628696
          ],
          [
            11.529436386586003,
            48.050579598579546
          ],
          [
            11.529461711748887,
            48.05055896082071
          ],
          [
            11.529488287392091,
            48.050539040521215
          ],
          [
            11.529516068227778,
            48.05051987162747
          ],
          [
            11.529545006914322,
            48.05050148680539
          ],
          [
            11.529575054136998,
            48.05048391738474
          ],
          [
            11.529606158692005,
            48.05046719330577
          ],
          [
            11.529638267573738,
            48.050451343068154
          ],
          [
            11.529671326065102,
            48.05043639368247
          ],
          [
            11.529705277830766,
            48.050422370624105
          ],
          [
            11.52974006501316,
            48.050409297789926
          ],
          [
            11.52977562833107,
            48.05039719745748
          ],
          [
            11.529811907180658,
            48.050386090247066
          ],
          [
            11.52984883973875,
            48.05037599508662
          ],
          [
            11.52988636306817,
            48.050366929179404
          ],
          [
            11.529924413225011,
            48.050358907974726
          ],
          [
            11.529962925367586,
            48.050351945141614
          ],
          [
            11.530001833866939,
            48.0503460525455
          ],
          [
            11.530041072418673,
            48.05034124022803
          ],
          [
            11.53008057415595,
            48.05033751638992
          ],
          [
            11.530120271763431,
            48.050334887377
          ],
          [
            11.530160097591995,
            48.05033335766941
          ],
          [
            11.530199983774018,
            48.050332929873925
          ],
          [
            11.530239862339025,
            48.05033360471957
          ],
          [
            11.530279665329523,
            48.05033538105633
          ],
          [
            11.530319324916805,
            48.05033825585713
          ],
          [
            11.53035877351654,
            48.05034222422299
          ],
          [
            11.530397943903942,
            48.05034727939137
          ],
          [
            11.53043676932833,
            48.05035341274771
          ],
          [
            11.530475183626884,
            48.05036061384009
          ],
          [
            11.530513121337375,
            48.050368870397044
          ],
          [
            11.530550517809745,
            48.050378168348495
          ],
          [
            11.53058730931626,
            48.050388491849695
          ],
          [
            11.530623433160118,
            48.05039982330826
          ],
          [
            11.530658827782283,
            48.05041214341412
          ],
          [
            11.530693432866398,
            48.050425431172464
          ],
          [
            11.530727189441567,
            48.050439663939464
          ],
          [
            11.530760039982844,
            48.05045481746092
          ],
          [
            11.530791928509267,
            48.05047086591354
          ],
          [
            11.530822800679251,
            48.050487781948995
          ],
          [
            11.5308526038832,
            48.050505536740474
          ],
          [
            11.530881287333154,
            48.05052410003186
          ],
          [
            11.53090880214933,
            48.05054344018923
          ],
          [
            11.530935101443438,
            48.05056352425483
          ],
          [
            11.530960140398564,
            48.050584318003175
          ],
          [
            11.530983876345553,
            48.050605785999416
          ],
          [
            11.531006268835725,
            48.050627891659715
          ],
          [
            11.531027279709791,
            48.05065059731356
          ]
        ]
      }
    },
    {
      "type": "Feature",
      "properties": {
        "folder": "Outfield arcs",
        "name": "BBSV U15 Jugend reference arc",
        "description": "For reference only \u2014 infeasible on this field. 90 m foul / 105 m CF (lower band). R=69.6 m, length 161 m."
      },
      "geometry": {
        "type": "LineString",
        "coordinates": [
          [
            11.529322404154488,
            48.05101155660195
          ],
          [
            11.52932939062001,
            48.050985219441934
          ],
          [
            11.529338049339605,
            48.050959105924946
          ],
          [
            11.529348364535652,
            48.050933263634136
          ],
          [
            11.529360317412149,
            48.05090773965846
          ],
          [
            11.529373886188973,
            48.05088258050684
          ],
          [
            11.529389046141558,
            48.050857832023404
          ],
          [
            11.529405769645962,
            48.05083353930401
          ],
          [
            11.529424026229178,
            48.05080974661403
          ],
          [
            11.529443782624684,
            48.050786497307676
          ],
          [
            11.52946500283305,
            48.05076383374905
          ],
          [
            11.529487648187535,
            48.05074179723493
          ],
          [
            11.529511677424544,
            48.05072042791948
          ],
          [
            11.529537046758824,
            48.05069976474115
          ],
          [
            11.529563709963233,
            48.050679845351674
          ],
          [
            11.52959161845299,
            48.050660706047495
          ],
          [
            11.529620721374195,
            48.05064238170359
          ],
          [
            11.529650965696499,
            48.05062490570996
          ],
          [
            11.529682296309726,
            48.050608309910764
          ],
          [
            11.5297146561243,
            48.050592624546304
          ],
          [
            11.52974798617527,
            48.05057787819791
          ],
          [
            11.52978222572975,
            48.05056409773589
          ],
          [
            11.529817312397594,
            48.050551308270514
          ],
          [
            11.529853182245068,
            48.050539533106324
          ],
          [
            11.529889769911358,
            48.05052879369962
          ],
          [
            11.529927008727666,
            48.05051910961938
          ],
          [
            11.52996483083869,
            48.050510498511606
          ],
          [
            11.530003167326266,
            48.050502976067165
          ],
          [
            11.53004194833495,
            48.050496555993206
          ],
          [
            11.530081103199315,
            48.050491249988156
          ],
          [
            11.530120560572696,
            48.05048706772045
          ],
          [
            11.530160248557213,
            48.05048401681086
          ],
          [
            11.530200094834772,
            48.05048210281866
          ],
          [
            11.530240026798845,
            48.05048132923146
          ],
          [
            11.530279971686765,
            48.05048169745886
          ],
          [
            11.530319856712318,
            48.0504832068299
          ],
          [
            11.53035960919837,
            48.05048585459424
          ],
          [
            11.530399156709295,
            48.05048963592722
          ],
          [
            11.530438427182967,
            48.050494543938626
          ],
          [
            11.530477349062064,
            48.05050056968525
          ],
          [
            11.530515851424465,
            48.05050770218717
          ],
          [
            11.530553864112477,
            48.050515928447794
          ],
          [
            11.530591317860672,
            48.05052523347751
          ],
          [
            11.530628144422112,
            48.050535600321005
          ],
          [
            11.530664276692685,
            48.05054701008817
          ],
          [
            11.5306996488334,
            48.05055944198852
          ],
          [
            11.530734196390348,
            48.05057287336906
          ],
          [
            11.530767856412147,
            48.050587279755604
          ],
          [
            11.530800567564654,
            48.05060263489732
          ],
          [
            11.530832270242717,
            48.05061891081457
          ],
          [
            11.530862906678799,
            48.05063607784996
          ],
          [
            11.530892421048229,
            48.050654104722284
          ],
          [
            11.530920759570929,
            48.050672958583604
          ],
          [
            11.530947870609406,
            48.05069260507904
          ],
          [
            11.530973704762852,
            48.05071300840943
          ]
        ]
      }
    },
    {
      "type": "Feature",
      "properties": {
        "folder": "Foul lines and chalk endpoints",
        "name": "RF foul line (chalk bearing 236.22\u00b0)",
        "description": "From home plate to surveyed RF chalk endpoint at 66.91 m."
      },
      "geometry": {
        "type": "LineString",
        "coordinates": [
          [
            11.530370986609773,
            48.05141513323795
          ],
          [
            11.529623519580033,
            48.05108049069782
          ]
        ]
      }
    },
    {
      "type": "Feature",
      "properties": {
        "folder": "Foul lines and chalk endpoints",
        "name": "LF foul line (chalk bearing 151.86\u00b0)",
        "description": "From home plate to surveyed LF chalk endpoint at 64.21 m."
      },
      "geometry": {
        "type": "LineString",
        "coordinates": [
          [
            11.530370986609773,
            48.05141513323795
          ],
          [
            11.530778042628457,
            48.05090566272845
          ]
        ]
      }
    },
    {
      "type": "Feature",
      "properties": {
        "folder": "Foul lines and chalk endpoints",
        "name": "RF chalk endpoint",
        "description": "66.91 m from home at bearing 236.22\u00b0."
      },
      "geometry": {
        "type": "Point",
        "coordinates": [
          11.529623519580033,
          48.05108049069782
        ]
      }
    },
    {
      "type": "Feature",
      "properties": {
        "folder": "Foul lines and chalk endpoints",
        "name": "LF chalk endpoint",
        "description": "64.21 m from home at bearing 151.86\u00b0."
      },
      "geometry": {
        "type": "Point",
        "coordinates": [
          11.530778042628457,
          48.05090566272845
        ]
      }
    },
    {
      "type": "Feature",
      "properties": {
        "folder": "Diamond",
        "name": "Home plate",
        "description": "Origin of the field coordinate system."
      },
      "geometry": {
        "type": "Point",
        "coordinates": [
          11.530370986609773,
          48.05141513323795
        ]
      }
    },
    {
      "type": "Feature",
      "properties": {
        "folder": "Diamond",
        "name": "1st base",
        "description": "Surveyed: 18.51 m at bearing 236.85\u00b0. Little League / 60-ft scale."
      },
      "geometry": {
        "type": "Point",
        "coordinates": [
          11.53016263118982,
          48.051324108667785
        ]
      }
    },
    {
      "type": "Feature",
      "properties": {
        "folder": "Diamond",
        "name": "2nd base",
        "description": "Surveyed: 25.21 m at bearing 193.46\u00b0. Defines the diamond symmetry axis."
      },
      "geometry": {
        "type": "Point",
        "coordinates": [
          11.530292058824903,
          48.05119449205331
        ]
      }
    },
    {
      "type": "Feature",
      "properties": {
        "folder": "Diamond",
        "name": "3rd base",
        "description": "Surveyed: 18.47 m at bearing 151.64\u00b0."
      },
      "geometry": {
        "type": "Point",
        "coordinates": [
          11.530488877556731,
          48.05126891449887
        ]
      }
    },
    {
      "type": "Feature",
      "properties": {
        "folder": "Diamond",
        "name": "Pitcher's plate",
        "description": "Surveyed: 13.77 m at bearing 194.04\u00b0. Matches Little League 46-ft."
      },
      "geometry": {
        "type": "Point",
        "coordinates": [
          11.530326166819187,
          48.05129494623837
        ]
      }
    },
    {
      "type": "Feature",
      "properties": {
        "folder": "Diamond",
        "name": "Mound centre",
        "description": "Surveyed: 13.26 m at bearing 194.14\u00b0."
      },
      "geometry": {
        "type": "Point",
        "coordinates": [
          11.530327508008737,
          48.05129942892964
        ]
      }
    },
    {
      "type": "Feature",
      "properties": {
        "folder": "Trial reference points",
        "name": "RF corner \u2014 trial",
        "description": "Trial reference point 1/5. Home \u2192 RF corner: 66.91 m at 236.23\u00b0. Same location as RF chalk endpoint."
      },
      "geometry": {
        "type": "Point",
        "coordinates": [
          11.529623519580033,
          48.05108049069782
        ]
      }
    },
    {
      "type": "Feature",
      "properties": {
        "folder": "Trial reference points",
        "name": "RF mid-arc \u2014 trial",
        "description": "Trial reference point 2/5. Home \u2192 RF mid-arc: 77.20 m at 214.38\u00b0. Geodesic midpoint between RF corner and CF apex along the arc."
      },
      "geometry": {
        "type": "Point",
        "coordinates": [
          11.529785193830715,
          48.05084184413892
        ]
      }
    },
    {
      "type": "Feature",
      "properties": {
        "folder": "Trial reference points",
        "name": "CF apex \u2014 trial",
        "description": "Trial reference point 3/5. Home \u2192 CF apex: 79.98 m at 193.12\u00b0. Deepest point of the arc."
      },
      "geometry": {
        "type": "Point",
        "coordinates": [
          11.530126997756286,
          48.05071421139396
        ]
      }
    },
    {
      "type": "Feature",
      "properties": {
        "folder": "Trial reference points",
        "name": "LF mid-arc \u2014 trial",
        "description": "Trial reference point 4/5. Home \u2192 LF mid-arc: 74.96 m at 171.77\u00b0. Geodesic midpoint between CF apex and LF corner along the arc."
      },
      "geometry": {
        "type": "Point",
        "coordinates": [
          11.530515180649552,
          48.05074753621319
        ]
      }
    },
    {
      "type": "Feature",
      "properties": {
        "folder": "Trial reference points",
        "name": "LF corner \u2014 trial",
        "description": "Trial reference point 5/5. Home \u2192 LF corner: 64.21 m at 151.85\u00b0. Same location as LF chalk endpoint."
      },
      "geometry": {
        "type": "Point",
        "coordinates": [
          11.530778042628457,
          48.05090566272845
        ]
      }
    },
    {
      "type": "Feature",
      "properties": {
        "folder": "Permanent structures",
        "name": "Backstop wall",
        "description": "Curved wall behind home plate, 10 surveyed points. ~17 m wide \u00d7 9.4 m deep, apex on the home\u2192CF axis."
      },
      "geometry": {
        "type": "LineString",
        "coordinates": [
          [
            11.530477470562962,
            48.05147691764964
          ],
          [
            11.530453001511345,
            48.0514832785676
          ],
          [
            11.530436009114387,
            48.05148963948479
          ],
          [
            11.530417657325675,
            48.05149327429428
          ],
          [
            11.530404063408108,
            48.05149600040123
          ],
          [
            11.530376875572975,
            48.05149918085913
          ],
          [
            11.530361922263651,
            48.05149963521024
          ],
          [
            11.530325898382102,
            48.05149918085913
          ],
          [
            11.53028987450055,
            48.05149418299662
          ],
          [
            11.530249092747853,
            48.051483732918875
          ]
        ]
      }
    },
    {
      "type": "Feature",
      "properties": {
        "folder": "Permanent structures",
        "name": "Soccer N penalty area",
        "description": "Surveyed corners: 40.22 \u00d7 16.36 m (FIFA 40.32 \u00d7 16.5). Long axis bearing 90.56\u00b0 (~due east)."
      },
      "geometry": {
        "type": "Polygon",
        "coordinates": [
          [
            [
              11.52976102590142,
              48.05081599396754
            ],
            [
              11.530301525389968,
              48.05081285605364
            ],
            [
              11.530304207769564,
              48.05095988952818
            ],
            [
              11.529763708281017,
              48.05096347570527
            ],
            [
              11.52976102590142,
              48.05081599396754
            ]
          ]
        ]
      }
    }
  ]
}