<?xml version="1.0" encoding="UTF-8"?>
<kml xmlns="http://www.opengis.net/kml/2.2">
  <Document>
    <name>Outfield arc — small variant (BBSV U12 Schüler)</name>
    <description>D=80 m apex on bearing 193.46° (home→2B); R=46.56 m, arc length 115.5 m, 39 segments at 3.0 m. Foul-corners pinned to surveyed chalk endpoints.</description>
    <Style id="arc">
      <LineStyle>
        <color>ff0000ff</color>
        <width>3</width>
      </LineStyle>
    </Style>
    <Placemark>
      <name>Outfield arc — small variant (BBSV U12 Schüler)</name>
      <description>D=80 m apex on bearing 193.46° (home→2B); R=46.56 m, arc length 115.5 m, 39 segments at 3.0 m. Foul-corners pinned to surveyed chalk endpoints.</description>
      <styleUrl>#arc</styleUrl>
      <LineString>
        <tessellate>1</tessellate>
        <coordinates>
          11.529623519580033,48.05108049069782,0
          11.529629055853523,48.05105410179152,0
          11.529637086606666,48.05102800196789,0
          11.529647579343605,48.051002296837986,0
          11.529660491606247,48.05097709041572,0
          11.529675771146058,48.05095248469705,0
          11.529693356135498,48.05092857924723,0
          11.529713175418184,48.050905470797915,0
          11.529735148796835,48.05088325285576,0
          11.529759187357774,48.05086201532406,0
          11.529785193830715,48.05084184413892,0
          11.529813062982363,48.050822820921596,0
          11.529842682042226,48.050805022648134,0
          11.529873931158932,48.05078852133796,0
          11.529906683885212,48.050773383762404,0
          11.529940807689542,48.05075967117459,0
          11.529976164492435,48.05074743906149,0
          11.530012611225164,48.05073673691946,0
          11.53005000040868,48.05072760805394,0
          11.530088180750377,48.050720089404216,0
          11.530126997756286,48.05071421139396,0
          11.530166294356215,48.050709997808106,0
          11.53020591153934,48.05070746569663,0
          11.530245688997615,48.05070662530554,0
          11.530285465774453,48.050707480035406,0
          11.530325080916025,48.05071002642763,0
          11.530364374122545,48.05071425417842,0
          11.530403186396917,48.050720146180495,0
          11.530441360688101,48.050727678592295,0
          11.530478742526608,48.05073682093447,0
          11.530515180649552,48.05074753621319,0
          11.530550527612725,48.05075978106986,0
          11.530584640387213,48.05077350595656,0
          11.530617380938162,48.050788655336554,0
          11.530648616783317,48.050805167908955,0
          11.530678221529106,48.05082297685685,0
          11.530706075382081,48.050842010117634,0
          11.530732065633659,48.0508621906746,0
          11.530756087116176,48.050883436868595,0
          11.530778042628457,48.05090566272845,0
        </coordinates>
      </LineString>
    </Placemark>
  </Document>
</kml>
